STARLINK-32130          
1 60585U 24150C   26077.80492350  .00001904  00000+0  76356-4 0  9993
2 60585  53.1590 264.9219 0001061  85.3541 274.7581 15.30211530 89356
STARLINK-32173          
1 60586U 24150D   26077.50781018 -.00000711  00000+0 -11897-4 0  9999
2 60586  53.1579 265.9103 0001338  96.4395 263.6758 15.30187037 89395
STARLINK-31911          
1 60587U 24150E   26077.79544670 -.00000015  00000+0  11624-4 0  9996
2 60587  53.1609 264.8628 0001282  85.3894 274.7253 15.30199417 89353
STARLINK-31994          
1 60588U 24150F   26077.89230928  .00000192  00000+0  18624-4 0  9998
2 60588  53.1591 264.0437 0001217  99.1612 260.9527 15.30195359 89377
STARLINK-32169          
1 60589U 24150G   26077.81655336  .00000548  00000+0  30625-4 0  9995
2 60589  53.1580 264.9951 0001272  94.2490 265.8656 15.30195258 89439
STARLINK-32209          
1 60590U 24150H   26077.77433921  .00000082  00000+0  14893-4 0  9998
2 60590  53.1587 264.7283 0000700 107.2548 252.8529 15.30188254 89431
STARLINK-32170          
1 60591U 24150J   26077.81127830  .00001425  00000+0  60233-4 0  9994
2 60591  53.1565 264.9620 0001149  91.8345 268.2787 15.30198136 89354
STARLINK-31497          
1 60592U 24150K   26077.78806023  .00000385  00000+0  25109-4 0  9996
2 60592  53.1624 264.8156 0001274  88.3645 271.7502 15.30199578 89431
STARLINK-32161          
1 60593U 24150L   26077.77225347 -.00001437  00000+0 -36424-4 0  9993
2 60593  53.1552 264.7140 0001193 108.7124 251.4006 15.30176964 89352
STARLINK-32210          
1 60594U 24150M   26077.88914402 -.00000848  00000+0 -16527-4 0  9990
2 60594  53.1600 264.0215 0001028 103.0450 257.0666 15.30190916 89458
STARLINK-32202          
1 60595U 24150N   26077.80177631  .00000686  00000+0  35268-4 0  9999
2 60595  53.1601 264.9015 0001023  83.7487 276.3631 15.30198537 89437
STARLINK-31930          
1 60596U 24150P   26077.50358508 -.00004755  00000+0 -14845-3 0  9991
2 60596  53.1595 265.8841 0000907  74.9051 285.2050 15.30215852 89317
STARLINK-32162          
1 60597U 24150Q   26077.81444347 -.00000036  00000+0  10918-4 0  9998
2 60597  53.1564 264.9814 0000862  92.8931 267.2168 15.30195619 89431
STARLINK-32208          
1 60598U 24150R   26077.81763189  .00022639  00000+0  77688-3 0  9995
2 60598  53.1613 264.9970 0002958  85.7199 274.4140 15.30084610 89433
STARLINK-32165          
1 60599U 24150S   26077.80811092  .00000274  00000+0  21359-4 0  9998
2 60599  53.1589 264.9409 0000870 104.9823 255.1274 15.30207955 89435
STARLINK-31923          
1 60600U 24150T   26077.53632515 -.00002105  00000+0 -59063-4 0  9992
2 60600  53.1609 266.0862 0000411  13.3302 346.7710 15.30168340 89394
STARLINK-31988          
1 60601U 24150U   26077.79122531  .00000351  00000+0  23966-4 0  9995
2 60601  53.1610 264.8364 0001186  81.9195 278.1940 15.30199068 89351
