[{"OBJECT_NAME":"STARLINK-32130","OBJECT_ID":"2024-150C","EPOCH":"2026-03-18T19:19:05.390400","MEAN_MOTION":15.3021153,"ECCENTRICITY":0.0001061,"INCLINATION":53.159,"RA_OF_ASC_NODE":264.9219,"ARG_OF_PERICENTER":85.3541,"MEAN_ANOMALY":274.7581,"EPHEMERIS_TYPE":0,"CLASSIFICATION_TYPE":"U","NORAD_CAT_ID":60585,"ELEMENT_SET_NO":999,"REV_AT_EPOCH":8935,"BSTAR":7.6356e-5,"MEAN_MOTION_DOT":1.904e-5,"MEAN_MOTION_DDOT":0},{"OBJECT_NAME":"STARLINK-32173","OBJECT_ID":"2024-150D","EPOCH":"2026-03-18T12:11:14.799552","MEAN_MOTION":15.30187037,"ECCENTRICITY":0.00013389,"INCLINATION":53.1579,"RA_OF_ASC_NODE":265.9103,"ARG_OF_PERICENTER":96.4395,"MEAN_ANOMALY":263.6758,"EPHEMERIS_TYPE":0,"CLASSIFICATION_TYPE":"U","NORAD_CAT_ID":60586,"ELEMENT_SET_NO":999,"REV_AT_EPOCH":8939,"BSTAR":-1.1897329e-5,"MEAN_MOTION_DOT":-7.11e-6,"MEAN_MOTION_DDOT":0},{"OBJECT_NAME":"STARLINK-31911","OBJECT_ID":"2024-150E","EPOCH":"2026-03-18T19:05:26.594880","MEAN_MOTION":15.30199417,"ECCENTRICITY":0.0001282,"INCLINATION":53.1609,"RA_OF_ASC_NODE":264.8628,"ARG_OF_PERICENTER":85.3894,"MEAN_ANOMALY":274.7253,"EPHEMERIS_TYPE":0,"CLASSIFICATION_TYPE":"U","NORAD_CAT_ID":60587,"ELEMENT_SET_NO":999,"REV_AT_EPOCH":8935,"BSTAR":1.1624e-5,"MEAN_MOTION_DOT":-1.5e-7,"MEAN_MOTION_DDOT":0},{"OBJECT_NAME":"STARLINK-31994","OBJECT_ID":"2024-150F","EPOCH":"2026-03-18T21:24:55.521792","MEAN_MOTION":15.30195359,"ECCENTRICITY":0.0001217,"INCLINATION":53.1591,"RA_OF_ASC_NODE":264.0437,"ARG_OF_PERICENTER":99.1612,"MEAN_ANOMALY":260.9527,"EPHEMERIS_TYPE":0,"CLASSIFICATION_TYPE":"U","NORAD_CAT_ID":60588,"ELEMENT_SET_NO":999,"REV_AT_EPOCH":8937,"BSTAR":1.8624e-5,"MEAN_MOTION_DOT":1.92e-6,"MEAN_MOTION_DDOT":0},{"OBJECT_NAME":"STARLINK-32169","OBJECT_ID":"2024-150G","EPOCH":"2026-03-18T19:35:50.210304","MEAN_MOTION":15.30195258,"ECCENTRICITY":0.0001272,"INCLINATION":53.158,"RA_OF_ASC_NODE":264.9951,"ARG_OF_PERICENTER":94.249,"MEAN_ANOMALY":265.8656,"EPHEMERIS_TYPE":0,"CLASSIFICATION_TYPE":"U","NORAD_CAT_ID":60589,"ELEMENT_SET_NO":999,"REV_AT_EPOCH":8943,"BSTAR":3.0625e-5,"MEAN_MOTION_DOT":5.48e-6,"MEAN_MOTION_DDOT":0},{"OBJECT_NAME":"STARLINK-32209","OBJECT_ID":"2024-150H","EPOCH":"2026-03-18T18:35:02.907744","MEAN_MOTION":15.30188254,"ECCENTRICITY":7.0e-5,"INCLINATION":53.1587,"RA_OF_ASC_NODE":264.7283,"ARG_OF_PERICENTER":107.2548,"MEAN_ANOMALY":252.8529,"EPHEMERIS_TYPE":0,"CLASSIFICATION_TYPE":"U","NORAD_CAT_ID":60590,"ELEMENT_SET_NO":999,"REV_AT_EPOCH":8943,"BSTAR":1.4893e-5,"MEAN_MOTION_DOT":8.2e-7,"MEAN_MOTION_DDOT":0},{"OBJECT_NAME":"STARLINK-32170","OBJECT_ID":"2024-150J","EPOCH":"2026-03-18T19:28:14.445120","MEAN_MOTION":15.30198136,"ECCENTRICITY":0.0001149,"INCLINATION":53.1565,"RA_OF_ASC_NODE":264.962,"ARG_OF_PERICENTER":91.8345,"MEAN_ANOMALY":268.2787,"EPHEMERIS_TYPE":0,"CLASSIFICATION_TYPE":"U","NORAD_CAT_ID":60591,"ELEMENT_SET_NO":999,"REV_AT_EPOCH":8935,"BSTAR":6.0233e-5,"MEAN_MOTION_DOT":1.425e-5,"MEAN_MOTION_DDOT":0},{"OBJECT_NAME":"STARLINK-31497","OBJECT_ID":"2024-150K","EPOCH":"2026-03-18T18:54:48.403872","MEAN_MOTION":15.30199578,"ECCENTRICITY":0.0001274,"INCLINATION":53.1624,"RA_OF_ASC_NODE":264.8156,"ARG_OF_PERICENTER":88.3645,"MEAN_ANOMALY":271.7502,"EPHEMERIS_TYPE":0,"CLASSIFICATION_TYPE":"U","NORAD_CAT_ID":60592,"ELEMENT_SET_NO":999,"REV_AT_EPOCH":8943,"BSTAR":2.5109e-5,"MEAN_MOTION_DOT":3.85e-6,"MEAN_MOTION_DDOT":0},{"OBJECT_NAME":"STARLINK-32161","OBJECT_ID":"2024-150L","EPOCH":"2026-03-18T18:32:02.699808","MEAN_MOTION":15.30176964,"ECCENTRICITY":0.0001193,"INCLINATION":53.1552,"RA_OF_ASC_NODE":264.714,"ARG_OF_PERICENTER":108.7124,"MEAN_ANOMALY":251.4006,"EPHEMERIS_TYPE":0,"CLASSIFICATION_TYPE":"U","NORAD_CAT_ID":60593,"ELEMENT_SET_NO":999,"REV_AT_EPOCH":8935,"BSTAR":-3.6424e-5,"MEAN_MOTION_DOT":-1.437e-5,"MEAN_MOTION_DDOT":0},{"OBJECT_NAME":"STARLINK-32210","OBJECT_ID":"2024-150M","EPOCH":"2026-03-18T21:20:22.043328","MEAN_MOTION":15.30190916,"ECCENTRICITY":0.0001028,"INCLINATION":53.16,"RA_OF_ASC_NODE":264.0215,"ARG_OF_PERICENTER":103.045,"MEAN_ANOMALY":257.0666,"EPHEMERIS_TYPE":0,"CLASSIFICATION_TYPE":"U","NORAD_CAT_ID":60594,"ELEMENT_SET_NO":999,"REV_AT_EPOCH":8945,"BSTAR":-1.6527e-5,"MEAN_MOTION_DOT":-8.48e-6,"MEAN_MOTION_DDOT":0},{"OBJECT_NAME":"STARLINK-32202","OBJECT_ID":"2024-150N","EPOCH":"2026-03-18T19:14:33.473184","MEAN_MOTION":15.30198537,"ECCENTRICITY":0.0001023,"INCLINATION":53.1601,"RA_OF_ASC_NODE":264.9015,"ARG_OF_PERICENTER":83.7487,"MEAN_ANOMALY":276.3631,"EPHEMERIS_TYPE":0,"CLASSIFICATION_TYPE":"U","NORAD_CAT_ID":60595,"ELEMENT_SET_NO":999,"REV_AT_EPOCH":8943,"BSTAR":3.5268e-5,"MEAN_MOTION_DOT":6.86e-6,"MEAN_MOTION_DDOT":0},{"OBJECT_NAME":"STARLINK-31930","OBJECT_ID":"2024-150P","EPOCH":"2026-03-18T12:05:09.750912","MEAN_MOTION":15.30215852,"ECCENTRICITY":9.079e-5,"INCLINATION":53.1595,"RA_OF_ASC_NODE":265.8841,"ARG_OF_PERICENTER":74.9051,"MEAN_ANOMALY":285.205,"EPHEMERIS_TYPE":0,"CLASSIFICATION_TYPE":"U","NORAD_CAT_ID":60596,"ELEMENT_SET_NO":999,"REV_AT_EPOCH":8931,"BSTAR":-0.0001484506,"MEAN_MOTION_DOT":-4.755e-5,"MEAN_MOTION_DDOT":0},{"OBJECT_NAME":"STARLINK-32162","OBJECT_ID":"2024-150Q","EPOCH":"2026-03-18T19:32:47.915808","MEAN_MOTION":15.30195619,"ECCENTRICITY":8.62e-5,"INCLINATION":53.1564,"RA_OF_ASC_NODE":264.9814,"ARG_OF_PERICENTER":92.8931,"MEAN_ANOMALY":267.2168,"EPHEMERIS_TYPE":0,"CLASSIFICATION_TYPE":"U","NORAD_CAT_ID":60597,"ELEMENT_SET_NO":999,"REV_AT_EPOCH":8943,"BSTAR":1.0918e-5,"MEAN_MOTION_DOT":-3.6e-7,"MEAN_MOTION_DDOT":0},{"OBJECT_NAME":"STARLINK-32208","OBJECT_ID":"2024-150R","EPOCH":"2026-03-18T19:37:23.395296","MEAN_MOTION":15.3008461,"ECCENTRICITY":0.0002958,"INCLINATION":53.1613,"RA_OF_ASC_NODE":264.997,"ARG_OF_PERICENTER":85.7199,"MEAN_ANOMALY":274.414,"EPHEMERIS_TYPE":0,"CLASSIFICATION_TYPE":"U","NORAD_CAT_ID":60598,"ELEMENT_SET_NO":999,"REV_AT_EPOCH":8943,"BSTAR":0.00077688,"MEAN_MOTION_DOT":0.00022639,"MEAN_MOTION_DDOT":0},{"OBJECT_NAME":"STARLINK-32165","OBJECT_ID":"2024-150S","EPOCH":"2026-03-18T19:23:40.783488","MEAN_MOTION":15.30207955,"ECCENTRICITY":8.7e-5,"INCLINATION":53.1589,"RA_OF_ASC_NODE":264.9409,"ARG_OF_PERICENTER":104.9823,"MEAN_ANOMALY":255.1274,"EPHEMERIS_TYPE":0,"CLASSIFICATION_TYPE":"U","NORAD_CAT_ID":60599,"ELEMENT_SET_NO":999,"REV_AT_EPOCH":8943,"BSTAR":2.1359e-5,"MEAN_MOTION_DOT":2.74e-6,"MEAN_MOTION_DDOT":0},{"OBJECT_NAME":"STARLINK-31923","OBJECT_ID":"2024-150T","EPOCH":"2026-03-18T12:52:18.492960","MEAN_MOTION":15.3016834,"ECCENTRICITY":4.116e-5,"INCLINATION":53.1609,"RA_OF_ASC_NODE":266.0862,"ARG_OF_PERICENTER":13.3302,"MEAN_ANOMALY":346.771,"EPHEMERIS_TYPE":0,"CLASSIFICATION_TYPE":"U","NORAD_CAT_ID":60600,"ELEMENT_SET_NO":999,"REV_AT_EPOCH":8939,"BSTAR":-5.9063251e-5,"MEAN_MOTION_DOT":-2.105e-5,"MEAN_MOTION_DDOT":0},{"OBJECT_NAME":"STARLINK-31988","OBJECT_ID":"2024-150U","EPOCH":"2026-03-18T18:59:21.866784","MEAN_MOTION":15.30199068,"ECCENTRICITY":0.0001186,"INCLINATION":53.161,"RA_OF_ASC_NODE":264.8364,"ARG_OF_PERICENTER":81.9195,"MEAN_ANOMALY":278.194,"EPHEMERIS_TYPE":0,"CLASSIFICATION_TYPE":"U","NORAD_CAT_ID":60601,"ELEMENT_SET_NO":999,"REV_AT_EPOCH":8935,"BSTAR":2.3966e-5,"MEAN_MOTION_DOT":3.51e-6,"MEAN_MOTION_DDOT":0}]
